[{"OBJECT_NAME":"STARLINK-5150","OBJECT_ID":"2023-090AV","EPOCH":"2026-03-09T22:00:01.999584","MEAN_MOTION":15.1013784,"ECCENTRICITY":0.00012104,"INCLINATION":43.0005,"RA_OF_ASC_NODE":260.3876,"ARG_OF_PERICENTER":307.3924,"MEAN_ANOMALY":195.4184,"EPHEMERIS_TYPE":0,"CLASSIFICATION_TYPE":"U","NORAD_CAT_ID":57144,"ELEMENT_SET_NO":999,"REV_AT_EPOCH":578,"BSTAR":0.0046296775,"MEAN_MOTION_DOT":0.00077443,"MEAN_MOTION_DDOT":0},{"OBJECT_NAME":"COSMOS 375 DEB","OBJECT_ID":"1970-091Y","EPOCH":"2026-03-09T16:59:09.666528","MEAN_MOTION":14.26288602,"ECCENTRICITY":0.0427749,"INCLINATION":62.6882,"RA_OF_ASC_NODE":210.7792,"ARG_OF_PERICENTER":160.2239,"MEAN_ANOMALY":201.5993,"EPHEMERIS_TYPE":0,"CLASSIFICATION_TYPE":"U","NORAD_CAT_ID":4727,"ELEMENT_SET_NO":999,"REV_AT_EPOCH":73963,"BSTAR":0.0022516368,"MEAN_MOTION_DOT":0.00014343,"MEAN_MOTION_DDOT":0}]
